STARLINK-2031           
1 47648U 21012AE  22091.29983725  .00007917  00000+0  54956-3 0  9999
2 47648  53.0553  28.8119 0001814  59.7845 300.3324 15.06417427 63475
STARLINK-2032           
1 47649U 21012AF  22091.83428924  .00011043  00000+0  75850-3 0  9996
2 47649  53.0565  26.4073 0001729  54.9470 305.1681 15.06428613 63555
STARLINK-2033           
1 47650U 21012AG  22091.81953589  .00007550  00000+0  52484-3 0  9992
2 47650  53.0562  26.4714 0001446  69.0174 291.0970 15.06425156 63531
STARLINK-2035           
1 47651U 21012AH  22091.58823698  .00004353  00000+0  31087-3 0  9998
2 47651  53.0558  47.5128 0001732  58.4182 301.6976 15.06411820 63233
STARLINK-2036           
1 47652U 21012AJ  22091.61498513  .00011355  00000+0  77956-3 0  9992
2 47652  53.0557  47.3943 0001767  54.2792 305.8361 15.06420847 63238
STARLINK-2037           
1 47653U 21012AK  22091.54309963  .00004082  00000+0  29265-3 0  9994
2 47653  53.0565  27.6997 0001735  46.8400 313.2734 15.06419679 62985
STARLINK-2038           
1 47654U 21012AL  22091.35328254  .00012260  00000+0  83990-3 0  9990
2 47654  53.0558  48.5554 0001715  54.3674 305.7474 15.06426227 63192
STARLINK-2039           
1 47655U 21012AM  22091.61129779  .00004108  00000+0  29436-3 0  9998
2 47655  53.0559  47.4041 0001587  59.4829 300.6317 15.06417049 63235
STARLINK-2040           
1 47656U 21012AN  22091.29612226 -.00014835  00000+0 -97889-3 0  9994
2 47656  53.0565  28.8174 0001891  35.9097 324.2019 15.06406957 63469
STARLINK-2041           
1 47657U 21012AP  22091.36802768  .00006176  00000+0  43294-3 0  9993
2 47657  53.0553  48.5021 0001533  66.4662 293.6488 15.06417561 63199
STARLINK-2042           
1 47658U 21012AQ  22091.69237980  .00002357  00000+0  17704-3 0  9992
2 47658  53.0556  47.0409 0001615  65.4763 294.6394 15.06411378 63264
STARLINK-2043           
1 47659U 21012AR  22091.91667824 -.00001398  00000+0 -75035-4 0  9990
2 47659  53.0546 286.0318 0001592  76.0604 281.0346 15.06381115  3585
STARLINK-2044           
1 47660U 21012AS  22091.91667824  .00008328  00000+0  57761-3 0  9995
2 47660  53.0544 276.0271 0001699  45.1839 172.0389 15.06380655  3581
STARLINK-2051           
1 47661U 21012AT  22091.39197992  .00031810  00000+0  21419-2 0  9994
2 47661  53.0565  28.3847 0001496  63.9244 296.1899 15.06450263 63465
STARLINK-2052           
1 47662U 21012AU  22091.77068205  .00002258  00000+0  17040-3 0  9991
2 47662  53.0562  26.6908 0001551  50.0795 310.0330 15.06407348 63543
STARLINK-2053           
1 47663U 21012AV  22091.91667824 -.00020125  00000+0 -13362-2 0  9997
2 47663  53.0521 306.0432 0001902  57.0837 195.1389 15.06392819  3580
STARLINK-2054           
1 47664U 21012AW  22091.83797693  .00000747  00000+0  69008-4 0  9993
2 47664  53.0554  26.3915 0001633  59.1374 300.9775 15.06402479 63557
STARLINK-2056           
1 47665U 21012AX  22091.21641760  .00002370  00000+0  17791-3 0  9994
2 47665  53.0575  24.1699 0001481  97.2242 262.8916 15.06404416 63527
STARLINK-2057           
1 47666U 21012AY  22091.58132248  .00007133  00000+0  49699-3 0  9995
2 47666  53.0569  22.5455 0001583  64.9798 295.1355 15.06421393 63588
STARLINK-2058           
1 47667U 21012AZ  22091.60392437  .00006058  00000+0  42512-3 0  9999
2 47667  53.0554  47.4470 0001722  55.2518 304.8633 15.06412451 63216
STARLINK-2059           
1 47668U 21012BA  22091.77899708  .00003271  00000+0  23829-3 0  9995
2 47668  53.0555  26.6501 0001620  55.8412 304.2730 15.06414444 63540
STARLINK-2060           
1 47669U 21012BB  22091.91667824 -.00033192  00000+0 -22204-2 0  9996
2 47669  53.0548 311.0394 0001518  67.1438 317.5967 15.06390178  3588
STARLINK-2062           
1 47670U 21012BC  22091.86011154  .00001213  00000+0  10037-3 0  9990
2 47670  53.0559  26.2752 0002349  40.5603 319.5561 15.06391857 63546
STARLINK-2064           
1 47671U 21012BD  22091.84166682  .00000721  00000+0  67292-4 0  9995
2 47671  53.0537  26.3688 0001459  72.7736 287.3413 15.06406918 63551
STARLINK-2065           
1 47672U 21012BE  22091.22335817  .00004324  00000+0  30892-3 0  9994
2 47672  53.0565  19.1398 0001442  74.4548 285.6600 15.06407600 63573
STARLINK-2066           
1 47673U 21012BF  22091.26665698  .00006890  00000+0  48082-3 0  9992
2 47673  53.0569  28.9537 0001733  57.1958 302.9198 15.06415148 63455
STARLINK-2067           
1 47674U 21012BG  22091.54679306  .00013734  00000+0  93858-3 0  9991
2 47674  53.0553  27.6798 0001488  59.7595 300.3541 15.06422103 62986
STARLINK-2078           
1 47675U 21012BH  22091.80480012  .00001149  00000+0  95962-4 0  9991
2 47675  53.0574  26.5395 0001528  56.0401 304.0734 15.06416473 63543
STARLINK-2083           
1 47676U 21012BJ  22091.91667824 -.00008148  00000+0 -52884-3 0  9995
2 47676  53.0546 276.0420 0001711  54.5034 217.6082 15.06390000  3583
STARLINK-2090           
1 47677U 21012BK  22091.39382665  .00010108  00000+0  69595-3 0  9999
2 47677  53.0559  48.3931 0001727  55.5025 304.6127 15.06428106 62685
STARLINK-2095           
1 47679U 21012BM  22091.35602385  .00004941  00000+0  35022-3 0  9997
2 47679  53.0551  48.5611 0001397  58.6275 301.4851 15.06413650 63206
FLOCK 4S-46             
1 47684U 21006EK  22091.71107206  .00015906  00000+0  86271-3 0  9993
2 47684  97.4518 152.4885 0007346 198.4475 161.6492 15.14625388 65650
FLOCK 4S-47             
1 47685U 21006EL  22091.71057828  .00014291  00000+0  77475-3 0  9990
2 47685  97.4498 151.9765 0006680 187.5285 172.5848 15.14670948 66599
FLOCK 4S-44             
1 47686U 21006EM  22091.63008645  .00019150  00000+0  10392-2 0  9998
2 47686  97.4544 152.4313 0011749 182.4275 177.6902 15.14531241 65635
FLOCK 4S-43             
1 47687U 21006EN  22091.87990897  .00015508  00000+0  84199-3 0  9994
2 47687  97.4510 152.2790 0007075 173.8481 186.2839 15.14597026 66624
FLOCK 4S-45             
1 47688U 21006EP  22091.69500023  .00018991  00000+0  10273-2 0  9993
2 47688  97.4529 151.9963 0011288 167.6997 192.4513 15.14650708 66587
YAOGAN-31 G             
1 47691U 21014A   22091.69871753 -.00000090  00000+0  00000+0 0  9993
2 47691  63.4072 186.5315 0039336 348.3812  11.6300 13.45223392 54030
2021-014B               
1 47692U 21014B   22091.77555388 -.00000090  00000+0  00000+0 0  9996
2 47692  63.4084 189.0822 0033966 350.3717   9.6660 13.43802824 53974
YAOGAN-31 H             
1 47693U 21014C   22091.77305183 -.00000090  00000+0  00000+0 0  9993
2 47693  63.4078 187.2598 0039555 348.2823  11.7280 13.45223355 54018
YAOGAN-31 J             
1 47695U 21014E   22091.77284262 -.00000090  00000+0  00000+0 0  9999
2 47695  63.4062 186.3155 0039501 348.5091  11.5031 13.45223681 54039
FLOCK 4S-41             
1 47698U 21006ER  22091.72062618  .00010087  00000+0  54926-3 0  9993
2 47698  97.4574 152.5054 0010587 178.8960 181.2297 15.14572372 65631
AMAZONIA 1              
1 47699U 21015A   22091.80858286 -.00000044  00000+0  00000+0 0  9990
2 47699  98.4644 169.3383 0000961 110.6770 249.4499 14.40816967 57260
SAI-1 NANOCONNECT-2     
1 47701U 21015C   22089.17476740 -.00000073  00000+0  00000+0 0  9994
2 47701  97.4113 166.5771 0015583   2.4776 357.8237 15.25181835 60120
SINE (SINDHUNETRA)      
1 47702U 21015D   22091.78702934  .00017352  00000+0  70085-3 0  9993
2 47702  97.4322 169.1287 0011316   3.1809 356.9498 15.24770136 60495
SPACEBEE-87             
1 47703U 21015E   22091.77049289  .00053068  00000+0  18744-2 0  9997
2 47703  97.4215 169.0427 0007650 344.3333  15.7669 15.28999591 60526
SPACEBEE-86             
1 47704U 21015F   22091.74679125  .00054889  00000+0  19200-2 0  9993
2 47704  97.4211 169.0611 0007553 344.5843  15.5166 15.29307682 60501
SPACEBEE-85             
1 47705U 21015G   22091.74663054  .00053522  00000+0  18716-2 0  9992
2 47705  97.4210 169.0588 0007528 344.3171  15.7835 15.29325004 60523
SPACEBEE-84             
1 47706U 21015H   22091.74215810  .00053386  00000+0  18624-2 0  9992
2 47706  97.4212 169.0638 0007531 344.0107  16.0894 15.29404008 60523
SPACEBEE-83             
1 47707U 21015J   22091.75325994  .00057435  00000+0  20027-2 0  9998
2 47707  97.4202 169.0466 0007693 343.2889  16.8096 15.29397417 60526
SPACEBEE-82             
1 47708U 21015K   22091.71497906  .00054677  00000+0  18885-2 0  9992
2 47708  97.4201 169.0856 0007292 343.8474  16.2533 15.29724443 60523
SPACEBEE-81             
1 47709U 21015L   22091.77029761  .00062590  00000+0  21478-2 0  9994
2 47709  97.4203 169.1704 0007366 342.4616  17.6369 15.29895659 60456
SPACEBEE-78             
1 47710U 21015M   22091.75140803  .00063798  00000+0  21694-2 0  9996
2 47710  97.4202 169.1939 0007236 342.2279  17.8707 15.30186990 60536
SPACEBEE-76             
1 47711U 21015N   22091.84553157  .00066883  00000+0  22411-2 0  9993
2 47711  97.4200 169.3730 0007088 340.8891  19.2082 15.30650263 60558
SPACEBEE-80             
1 47712U 21015P   22091.76279872  .00063369  00000+0  21674-2 0  9990
2 47712  97.4204 169.1771 0007393 342.2136  17.8845 15.29998811 60534
SPACEBEE-77             
1 47714U 21015Q   22091.79264416  .00062022  00000+0  20905-2 0  9994
2 47714  97.4205 169.2955 0007049 341.8636  18.2352 15.30483496 60460
SPACEBEE-79             
1 47715U 21015R   22091.77066863  .00062030  00000+0  21241-2 0  9992
2 47715  97.4220 169.2019 0007317 342.2512  17.8471 15.29967719 60533
ARKTIKA-M 1             
1 47719U 21016A   22091.41174959 -.00000005  00000+0  00000+0 0  9996
2 47719  63.1783 243.4133 7022817 270.6822 156.1029  2.00608316  7953
SDSAT                   
1 47721U 21015V   22091.74968852  .00024546  00000+0  10004-2 0  9990
2 47721  97.4311 168.3860 0009238 332.5172  27.5576 15.24414105 60437
STARLINK-2068           
1 47722U 21017A   22091.70756467  .00007704  00000+0  53524-3 0  9998
2 47722  53.0537 171.9838 0001602  50.2355 309.8774 15.06421528 61259
